TIANWANG 1C (TW-1C)     
1 40926U 15051B   17197.82990527  .00005721  00000-0  13120-3 0  9995
2 40926  97.2270 237.1631 0013262  66.5675 341.3338 15.43043377101499
TIANWANG 1B (TW-1B)     
1 40927U 15051C   17197.73806632  .00005495  00000-0  13085-3 0  9997
2 40927  97.2364 237.0772 0013328  75.3920  35.5643 15.41929842101425
TIANWANG 1A (TW-1A)     
1 40928U 15051D   17197.92700440  .00002735  00000-0  79360-4 0  9992
2 40928  97.2244 233.2084 0014520  90.6039  31.0412 15.36271384101265
LAPAN-A2 (IO-86)        
1 40931U 15052B   17197.69486228  .00000673  00000-0  45962-5 0  9997
2 40931   6.0003  22.3215 0014203 301.9666  57.9149 14.76533667 97339
LQSAT                   
1 40958U 15057A   17197.86592152  .00000039  00000-0  13949-4 0  9999
2 40958  97.9769 272.6649 0017803 335.6474  24.3880 14.72972500 95480
CHUBUSAT-2              
1 41338U 16012B   17197.63677320  .00000379  00000-0  23077-4 0  9990
2 41338  31.0035 285.2247 0014027 350.7733   9.2643 14.99757488 77410
CHUBUSAT-3              
1 41339U 16012C   17197.62751589  .00000297  00000-0  16511-4 0  9994
2 41339  31.0120 284.3807 0013764 356.6774   3.3775 14.99961347 77394
OUFTI-1                 
1 41458U 16025C   17197.93296275  .00001708  00000-0  94767-4 0  9997
2 41458  98.1797 237.2135 0175172 189.8943 169.8818 15.03228928 67052
E-ST@R-II               
1 41459U 16025D   17197.89037890  .00000410  00000-0  26583-4 0  9999
2 41459  98.1853 237.1202 0174792 190.0237 169.7484 15.03076931 67038
AAUSAT 4                
1 41460U 16025E   17197.87021393  .00001193  00000-0  68168-4 0  9994
2 41460  98.1739 237.2128 0167084 188.5426 171.2966 15.03975771 67054
NUSAT 1 (LO-87)         
1 41557U 16033B   17197.76275411  .00001525  00000-0  60073-4 0  9996
2 41557  97.4625 277.2802 0012598 262.2592  97.7217 15.27121140 62946
BEESAT-4                
1 41619U 16040W   17197.86593075  .00002091  00000-0  97824-4 0  9996
2 41619  97.4603 259.9651 0011139 331.8823  28.1809 15.20835534 47108
PRATHAM                 
1 41783U 16059A   17197.91531377  .00000048  00000-0  18723-4 0  9992
2 41783  98.1649 258.9787 0034906  68.7015 291.7907 14.62844236 42941
ALSAT 1N                
1 41789U 16059G   17197.81090939  .00000079  00000-0  24258-4 0  9995
2 41789  98.1657 259.4343 0029660  63.1073 297.3141 14.64057073 42943
NAYIF-1 (EO-88)         
1 42017U 17008BX  17197.86866635  .00002305  00000-0  10083-3 0  9998
2 42017  97.4932 259.2662 0008207 112.5897 247.6208 15.23065425 23009
LILACSAT-1              
1 42725U 98067ME  17197.51537231  .00009089  00000-0  13692-3 0  9992
2 42725  51.6394 251.7283 0007523  56.2854 303.8854 15.55583366  8045
MAX VALIER SAT          
1 42778U 17036P   17197.89923325  .00001532  00000-0  73394-4 0  9992
2 42778  97.4498 257.3850 0013649 156.4486 203.7377 15.20370558  3545
